H1 CPF 01  gfz 2021 10 22 12  7952 tandemx   
H2 1003001  6202 36605    2021 10 22 12 59 42 2021 10 27 00 00 42   120 1 1  0 0 0
H9
10 0 59512   2862.000000  0   -1023852.354   -584751.966   6775806.899
10 0 59512   2982.000000  0    -843996.602    316946.851   6818212.513
10 0 59512   3102.000000  0    -633712.494   1209701.708   6740812.660
10 0 59512   3222.000000  0    -396965.657   2077436.805   6544959.856
10 0 59512   3342.000000  0    -138459.998   2904583.200   6234075.794
10 0 59512   3462.000000  0     136454.302   3676358.450   5813595.206
10 0 59512   3582.000000  0     421888.440   4379033.621   5290876.135
10 0 59512   3702.000000  0     711537.595   5000182.141   4675077.283
10 0 59512   3822.000000  0     998816.158   5528907.327   3977002.517
10 0 59512   3942.000000  0    1277000.518   5956040.442   3208915.108
10 0 59512   4062.000000  0    1539381.774   6274312.374   2384327.163
10 0 59512   4182.000000  0    1779420.604   6478487.241   1517755.892
10 0 59512   4302.000000  0    1990900.065   6565454.569    624462.901
10 0 59512   4422.000000  0    2168074.580   6534278.511   -279822.499
10 0 59512   4542.000000  0    2305809.540   6386203.696  -1179188.027
10 0 59512   4662.000000  0    2399709.118   6124617.988  -2057826.225
10 0 59512   4782.000000  0    2446229.175   5754972.981  -2900319.283
10 0 59512   4902.000000  0    2442772.136   5284663.944  -3691915.230
10 0 59512   5022.000000  0    2387761.353   4722871.585  -4418788.702
10 0 59512   5142.000000  0    2280692.969   4080371.752  -5068280.009
10 0 59512   5262.000000  0    2122165.306   3369318.978  -5629109.162
10 0 59512   5382.000000  0    1913885.785   2603009.353  -6091563.053
10 0 59512   5502.000000  0    1658654.831   1795626.721  -6447652.920
10 0 59512   5622.000000  0    1360328.525    961979.246  -6691240.120
10 0 59512   5742.000000  0    1023760.723    117230.373  -6818132.252
10 0 59512   5862.000000  0     654723.868   -723372.551  -6826147.772
10 0 59512   5982.000000  0     259811.140  -1544767.547  -6715147.955
10 0 59512   6102.000000  0    -153677.934  -2332339.742  -6487038.209
10 0 59512   6222.000000  0    -577868.377  -3072175.172  -6145740.996
10 0 59512   6342.000000  0   -1004455.738  -3751304.184  -5697135.495
10 0 59512   6462.000000  0   -1424863.590  -4357927.742  -5148966.346
10 0 59512   6582.000000  0   -1830411.699  -4881626.102  -4510722.281
10 0 59512   6702.000000  0   -2212492.117  -5313545.085  -3793482.886
10 0 59512   6822.000000  0   -2562749.346  -5646554.874  -3009735.311
10 0 59512   6942.000000  0   -2873260.453  -5875378.086  -2173163.646
10 0 59512   7062.000000  0   -3136711.635  -5996684.467  -1298413.464
10 0 59512   7182.000000  0   -3346566.874  -6009148.654   -400834.143
10 0 59512   7302.000000  0   -3497223.269  -5913467.456    503795.909
10 0 59512   7422.000000  0   -3584148.969  -5712336.338   1399554.180
10 0 59512   7542.000000  0   -3604000.424  -5410385.274   2270663.640
10 0 59512   7662.000000  0   -3554715.154  -5014074.767   3101779.681
10 0 59512   7782.000000  0   -3435578.071  -4531556.123   3878267.710
10 0 59512   7902.000000  0   -3247259.837  -3972499.294   4586466.365
10 0 59512   8022.000000  0   -2991826.450  -3347892.062   5213930.306
10 0 59512   8142.000000  0   -2672720.217  -2669816.861   5749647.902
10 0 59512   8262.000000  0   -2294712.397  -1951211.227   6184230.786
10 0 59512   8382.000000  0   -1863829.663  -1205617.116   6510074.202
10 0 59512   8502.000000  0   -1387254.276   -446921.452   6721485.549
10 0 59512   8622.000000  0    -873201.579    310904.559   6814775.366
10 0 59512   8742.000000  0    -330778.693   1054061.077   6788317.398
10 0 59512   8862.000000  0     230176.740   1769170.590   6642575.859
10 0 59512   8982.000000  0     799274.844   2443518.747   6380097.748
10 0 59512   9102.000000  0    1365765.398   3065280.198   6005470.370
10 0 59512   9222.000000  0    1918739.904   3623727.286   5525246.398
10 0 59512   9342.000000  0    2447341.420   4109419.179   4947835.655
10 0 59512   9462.000000  0    2940979.589   4514367.104   4283363.291
10 0 59512   9582.000000  0    3389544.057   4832170.672   3543495.978
10 0 59512   9702.000000  0    3783613.466   5058125.704   2741242.027
10 0 59512   9822.000000  0    4114658.517   5189300.785   1890720.728
10 0 59512   9942.000000  0    4375225.656   5224573.450   1006908.691
10 0 59512  10062.000000  0    4559103.769   5164634.652    105371.467
10 0 59512  10182.000000  0    4661466.284   5011953.814   -798021.179
10 0 59512  10302.000000  0    4678985.404   4770706.019  -1687382.451
10 0 59512  10422.000000  0    4609916.862   4446666.914  -2547095.173
10 0 59512  10542.000000  0    4454152.381   4047076.647  -3362092.142
10 0 59512  10662.000000  0    4213238.156   3580476.191  -4118123.885
10 0 59512  10782.000000  0    3890359.745   3056520.745  -4802006.757
10 0 59512  10902.000000  0    3490295.969   2485775.760  -5401848.492
10 0 59512  11022.000000  0    3019341.988   1879500.568  -5907247.899
10 0 59512  11142.000000  0    2485203.813   1249424.069  -6309465.014
10 0 59512  11262.000000  0    1896867.276    607518.057  -6601560.190
10 0 59512  11382.000000  0    1264445.648    -34227.063  -6778501.960
10 0 59512  11502.000000  0     599007.055   -664021.837  -6837246.351
10 0 59512  11622.000000  0     -87617.439  -1270489.909  -6776782.506
10 0 59512  11742.000000  0    -783038.589  -1842867.387  -6598147.025
10 0 59512  11862.000000  0   -1474526.734  -2371189.036  -6304409.441
10 0 59512  11982.000000  0   -2149239.624  -2846459.563  -5900625.158
10 0 59512  12102.000000  0   -2794455.616  -3260805.687  -5393757.488
10 0 59512  12222.000000  0   -3397811.208  -3607608.880  -4792570.143
10 0 59512  12342.000000  0   -3947539.192  -3881615.734  -4107486.885
10 0 59512  12462.000000  0   -4432700.723  -4079022.344  -3350420.776
10 0 59512  12582.000000  0   -4843407.944  -4197531.781  -2534575.138
10 0 59512  12702.000000  0   -5171031.534  -4236382.364  -1674217.426
10 0 59512  12822.000000  0   -5408387.686  -4196345.151   -784430.344
10 0 59512  12942.000000  0   -5549899.740  -4079690.657    119155.407
10 0 59512  13062.000000  0   -5591730.181  -3890125.204   1020641.894
10 0 59512  13182.000000  0   -5531878.052  -3632697.542   1904153.242
10 0 59512  13302.000000  0   -5370238.365  -3313676.887   2754124.957
10 0 59512  13422.000000  0   -5108623.038  -2940407.138   3555586.123
10 0 59512  13542.000000  0   -4750743.177  -2521141.184   4294429.903
10 0 59512  13662.000000  0   -4302152.153  -2064858.223   4957665.961
10 0 59512  13782.000000  0   -3770152.617  -1581070.625   5533647.991
10 0 59512  13902.000000  0   -3163671.516  -1079625.434   6012275.712
10 0 59512  14022.000000  0   -2493103.687   -570502.850   6385169.241
10 0 59512  14142.000000  0   -1770126.482    -63616.033   6645810.221
10 0 59512  14262.000000  0   -1007491.616    431381.145   6789648.073
10 0 59512  14382.000000  0    -218798.996    905276.186   6814174.302
10 0 59512  14502.000000  0     581745.661   1349468.669   6718963.430
10 0 59512  14622.000000  0    1379586.003   1756126.333   6505680.062
10 0 59512  14742.000000  0    2160079.051   2118323.388   6178050.869
10 0 59512  14862.000000  0    2908763.276   2430158.689   5741803.765
10 0 59512  14982.000000  0    3611628.531   2686853.427   5204574.228
10 0 59512  15102.000000  0    4255381.794   2884825.993   4575776.992
10 0 59512  15222.000000  0    4827702.465   3021742.800   3866446.654
10 0 59512  15342.000000  0    5317486.951   3096544.234   3089049.099
10 0 59512  15462.000000  0    5715072.630   3109442.455   2257260.492
10 0 59512  15582.000000  0    6012434.356   3061893.706   1385725.367
10 0 59512  15702.000000  0    6203352.929   2956545.178    489793.384
10 0 59512  15822.000000  0    6283547.653   2797155.933   -414759.540
10 0 59512  15942.000000  0    6250769.304   2588493.744  -1312018.298
10 0 59512  16062.000000  0    6104851.766   2336212.081  -2186215.663
10 0 59512  16182.000000  0    5847723.946   2046712.055  -3022016.234
10 0 59512  16302.000000  0    5483378.638   1726989.189  -3804790.578
10 0 59512  16422.000000  0    5017801.057   1384470.663  -4520873.007
10 0 59512  16542.000000  0    4458857.856   1026847.223  -5157797.451
10 0 59512  16662.000000  0    3816152.851    661905.488  -5704506.876
10 0 59512  16782.000000  0    3100853.154    297363.070  -6151536.033
10 0 59512  16902.000000  0    2325487.926    -59289.771  -6491164.517
10 0 59512  17022.000000  0    1503726.117   -400939.208  -6717538.125
10 0 59512  17142.000000  0     650137.027   -720985.265  -6826760.552
10 0 59512  17262.000000  0    -220065.575  -1013465.337  -6816953.199
10 0 59512  17382.000000  0   -1091288.213  -1273161.534  -6688282.640
10 0 59512  17502.000000  0   -1947830.165  -1495691.397  -6442959.011
10 0 59512  17622.000000  0   -2774160.423  -1677580.651  -6085201.767
10 0 59512  17742.000000  0   -3555192.791  -1816316.591  -5621174.478
10 0 59512  17862.000000  0   -4276559.193  -1910382.734  -5058890.988
10 0 59512  17982.000000  0   -4924876.613  -1959272.872  -4408088.457
10 0 59512  18102.000000  0   -5488000.387  -1963484.058  -3680069.740
10 0 59512  18222.000000  0   -5955260.637  -1924488.891  -2887516.428
10 0 59512  18342.000000  0   -6317675.234  -1844686.691  -2044273.422
10 0 59512  18462.000000  0   -6568133.941  -1727334.339  -1165109.363
10 0 59512  18582.000000  0   -6701548.816  -1576458.378   -265456.185
10 0 59512  18702.000000  0   -6714966.438  -1396749.851    638866.962
10 0 59512  18822.000000  0   -6607637.864  -1193444.320   1531939.894
10 0 59512  18942.000000  0   -6381043.816   -972190.583   2398030.843
10 0 59512  19062.000000  0   -6038874.817   -738911.432   3221882.537
10 0 59512  19182.000000  0   -5586966.891   -499659.400   3988989.002
10 0 59512  19302.000000  0   -5033192.974   -260471.818   4685856.612
99
